ONEWEB-0190             
1 48796U 21045AF  26127.92408528  .00000040  00000+0  71430-4 0  9994
2 48796  87.8970 267.2237 0001936  76.7109 283.4238 13.15548091239071
ONEWEB-0236             
1 48797U 21045AG  26127.94151825 -.00000107  00000+0 -31888-3 0  9990
2 48797  87.8966 267.2307 0001764 102.7376 257.3952 13.15548128238961
ONEWEB-0248             
1 48798U 21045AH  26127.87811784 -.00000147  00000+0 -42366-3 0  9997
2 48798  87.8977 267.2227 0001576  84.4049 275.7261 13.15551048239119
ONEWEB-0225             
1 48799U 21045AJ  26127.90029793  .00000076  00000+0  16884-3 0  9998
2 48799  87.8967 267.2293 0001880  80.5293 279.6050 13.15549364239126
ONEWEB-0215             
1 48800U 21045AK  26128.17444319 -.00000060  00000+0 -19232-3 0  9991
2 48800  87.8979 267.1535 0001759  75.5568 284.5757 13.15548804239031
ONEWEB-0216             
1 48801U 21045AL  26127.87971926 -.00000074  00000+0 -23159-3 0  9995
2 48801  87.8973 267.2283 0001906  99.2634 260.8712 13.15549017239000
ONEWEB-0239             
1 48802U 21045AM  26127.88445822 -.00000095  00000+0 -28768-3 0  9992
2 48802  87.8965 267.2375 0001498  72.7810 287.3484 13.15549411239044
ONEWEB-0249             
1 48967U 21060A   26128.23047549  .00000114  00000+0  26460-3 0  9992
2 48967  87.9098 236.7115 0001845 101.5687 258.5651 13.16596570234350
ONEWEB-0250             
1 48968U 21060B   26128.23410566  .00000105  00000+0  20984-3 0  9991
2 48968  87.9098 234.5970 0001103 121.3297 238.7947 13.25831455234925
ONEWEB-0252             
1 48970U 21060D   26128.26136654 -.00000031  00000+0 -11492-3 0  9994
2 48970  87.9095 236.6970 0002177  98.8663 261.2714 13.16595168234409
ONEWEB-0253             
1 48971U 21060E   26128.25026997 -.00000056  00000+0 -18120-3 0  9994
2 48971  87.9095 236.7054 0001849  99.4425 260.6915 13.16595582234330
ONEWEB-0254             
1 48972U 21060F   26128.25978365  .00000029  00000+0  41402-4 0  9998
2 48972  87.9098 236.7001 0001705  93.7422 266.3904 13.16594990234334
ONEWEB-0255             
1 48973U 21060G   26128.22175932  .00000114  00000+0  26449-3 0  9993
2 48973  87.9098 236.7155 0001816  96.2347 263.8991 13.16596756234400
ONEWEB-0256             
1 48974U 21060H   26128.24791174  .00000004  00000+0 -23468-4 0  9996
2 48974  87.9090 236.7162 0002026 102.9364 257.1993 13.16595275234378
ONEWEB-0257             
1 48975U 21060J   26128.28036067  .00000070  00000+0  15008-3 0  9996
2 48975  87.9097 236.6951 0001959  97.1384 262.9970 13.16595728234330
ONEWEB-0258             
1 48976U 21060K   26128.28193522  .00000106  00000+0  24481-3 0  9992
2 48976  87.9099 236.7061 0001842 100.9911 259.1427 13.16595449234342
