[{"OBJECT_NAME":"ONEWEB-0190","OBJECT_ID":"2021-045AF","EPOCH":"2026-05-07T22:10:40.968192","MEAN_MOTION":13.15548091,"ECCENTRICITY":0.0001936,"INCLINATION":87.897,"RA_OF_ASC_NODE":267.2237,"ARG_OF_PERICENTER":76.7109,"MEAN_ANOMALY":283.4238,"EPHEMERIS_TYPE":0,"CLASSIFICATION_TYPE":"U","NORAD_CAT_ID":48796,"ELEMENT_SET_NO":999,"REV_AT_EPOCH":23907,"BSTAR":7.143000000000001e-05,"MEAN_MOTION_DOT":4e-07,"MEAN_MOTION_DDOT":0.0},{"OBJECT_NAME":"ONEWEB-0236","OBJECT_ID":"2021-045AG","EPOCH":"2026-05-07T22:35:47.176800","MEAN_MOTION":13.15548128,"ECCENTRICITY":0.0001764,"INCLINATION":87.8966,"RA_OF_ASC_NODE":267.2307,"ARG_OF_PERICENTER":102.7376,"MEAN_ANOMALY":257.3952,"EPHEMERIS_TYPE":0,"CLASSIFICATION_TYPE":"U","NORAD_CAT_ID":48797,"ELEMENT_SET_NO":999,"REV_AT_EPOCH":23896,"BSTAR":-0.00031888,"MEAN_MOTION_DOT":-1.07e-06,"MEAN_MOTION_DDOT":0.0},{"OBJECT_NAME":"ONEWEB-0248","OBJECT_ID":"2021-045AH","EPOCH":"2026-05-07T21:04:29.381376","MEAN_MOTION":13.15551048,"ECCENTRICITY":0.0001576,"INCLINATION":87.8977,"RA_OF_ASC_NODE":267.2227,"ARG_OF_PERICENTER":84.4049,"MEAN_ANOMALY":275.7261,"EPHEMERIS_TYPE":0,"CLASSIFICATION_TYPE":"U","NORAD_CAT_ID":48798,"ELEMENT_SET_NO":999,"REV_AT_EPOCH":23911,"BSTAR":-0.00042365999999999997,"MEAN_MOTION_DOT":-1.47e-06,"MEAN_MOTION_DDOT":0.0},{"OBJECT_NAME":"ONEWEB-0225","OBJECT_ID":"2021-045AJ","EPOCH":"2026-05-07T21:36:25.741152","MEAN_MOTION":13.15549364,"ECCENTRICITY":0.000188,"INCLINATION":87.8967,"RA_OF_ASC_NODE":267.2293,"ARG_OF_PERICENTER":80.5293,"MEAN_ANOMALY":279.605,"EPHEMERIS_TYPE":0,"CLASSIFICATION_TYPE":"U","NORAD_CAT_ID":48799,"ELEMENT_SET_NO":999,"REV_AT_EPOCH":23912,"BSTAR":0.00016884,"MEAN_MOTION_DOT":7.6e-07,"MEAN_MOTION_DDOT":0.0},{"OBJECT_NAME":"ONEWEB-0215","OBJECT_ID":"2021-045AK","EPOCH":"2026-05-08T04:11:11.891616","MEAN_MOTION":13.15548804,"ECCENTRICITY":0.0001759,"INCLINATION":87.8979,"RA_OF_ASC_NODE":267.1535,"ARG_OF_PERICENTER":75.5568,"MEAN_ANOMALY":284.5757,"EPHEMERIS_TYPE":0,"CLASSIFICATION_TYPE":"U","NORAD_CAT_ID":48800,"ELEMENT_SET_NO":999,"REV_AT_EPOCH":23903,"BSTAR":-0.00019232,"MEAN_MOTION_DOT":-6e-07,"MEAN_MOTION_DDOT":0.0},{"OBJECT_NAME":"ONEWEB-0216","OBJECT_ID":"2021-045AL","EPOCH":"2026-05-07T21:06:47.744064","MEAN_MOTION":13.15549017,"ECCENTRICITY":0.0001906,"INCLINATION":87.8973,"RA_OF_ASC_NODE":267.2283,"ARG_OF_PERICENTER":99.2634,"MEAN_ANOMALY":260.8712,"EPHEMERIS_TYPE":0,"CLASSIFICATION_TYPE":"U","NORAD_CAT_ID":48801,"ELEMENT_SET_NO":999,"REV_AT_EPOCH":23900,"BSTAR":-0.00023159,"MEAN_MOTION_DOT":-7.4e-07,"MEAN_MOTION_DDOT":0.0},{"OBJECT_NAME":"ONEWEB-0239","OBJECT_ID":"2021-045AM","EPOCH":"2026-05-07T21:13:37.190208","MEAN_MOTION":13.15549411,"ECCENTRICITY":0.0001498,"INCLINATION":87.8965,"RA_OF_ASC_NODE":267.2375,"ARG_OF_PERICENTER":72.781,"MEAN_ANOMALY":287.3484,"EPHEMERIS_TYPE":0,"CLASSIFICATION_TYPE":"U","NORAD_CAT_ID":48802,"ELEMENT_SET_NO":999,"REV_AT_EPOCH":23904,"BSTAR":-0.00028768,"MEAN_MOTION_DOT":-9.5e-07,"MEAN_MOTION_DDOT":0.0},{"OBJECT_NAME":"ONEWEB-0249","OBJECT_ID":"2021-060A","EPOCH":"2026-05-08T05:31:53.082336","MEAN_MOTION":13.1659657,"ECCENTRICITY":0.0001845,"INCLINATION":87.9098,"RA_OF_ASC_NODE":236.7115,"ARG_OF_PERICENTER":101.5687,"MEAN_ANOMALY":258.5651,"EPHEMERIS_TYPE":0,"CLASSIFICATION_TYPE":"U","NORAD_CAT_ID":48967,"ELEMENT_SET_NO":999,"REV_AT_EPOCH":23435,"BSTAR":0.0002646,"MEAN_MOTION_DOT":1.14e-06,"MEAN_MOTION_DDOT":0.0},{"OBJECT_NAME":"ONEWEB-0250","OBJECT_ID":"2021-060B","EPOCH":"2026-05-08T05:37:06.729024","MEAN_MOTION":13.25831455,"ECCENTRICITY":0.0001103,"INCLINATION":87.9098,"RA_OF_ASC_NODE":234.597,"ARG_OF_PERICENTER":121.3297,"MEAN_ANOMALY":238.7947,"EPHEMERIS_TYPE":0,"CLASSIFICATION_TYPE":"U","NORAD_CAT_ID":48968,"ELEMENT_SET_NO":999,"REV_AT_EPOCH":23492,"BSTAR":0.00020984,"MEAN_MOTION_DOT":1.05e-06,"MEAN_MOTION_DDOT":0.0},{"OBJECT_NAME":"ONEWEB-0252","OBJECT_ID":"2021-060D","EPOCH":"2026-05-08T06:16:22.069056","MEAN_MOTION":13.16595168,"ECCENTRICITY":0.0002177,"INCLINATION":87.9095,"RA_OF_ASC_NODE":236.697,"ARG_OF_PERICENTER":98.8663,"MEAN_ANOMALY":261.2714,"EPHEMERIS_TYPE":0,"CLASSIFICATION_TYPE":"U","NORAD_CAT_ID":48970,"ELEMENT_SET_NO":999,"REV_AT_EPOCH":23440,"BSTAR":-0.00011491999999999999,"MEAN_MOTION_DOT":-3.1e-07,"MEAN_MOTION_DDOT":0.0},{"OBJECT_NAME":"ONEWEB-0253","OBJECT_ID":"2021-060E","EPOCH":"2026-05-08T06:00:23.325408","MEAN_MOTION":13.16595582,"ECCENTRICITY":0.0001849,"INCLINATION":87.9095,"RA_OF_ASC_NODE":236.7054,"ARG_OF_PERICENTER":99.4425,"MEAN_ANOMALY":260.6915,"EPHEMERIS_TYPE":0,"CLASSIFICATION_TYPE":"U","NORAD_CAT_ID":48971,"ELEMENT_SET_NO":999,"REV_AT_EPOCH":23433,"BSTAR":-0.0001812,"MEAN_MOTION_DOT":-5.6e-07,"MEAN_MOTION_DDOT":0.0},{"OBJECT_NAME":"ONEWEB-0254","OBJECT_ID":"2021-060F","EPOCH":"2026-05-08T06:14:05.307360","MEAN_MOTION":13.1659499,"ECCENTRICITY":0.0001705,"INCLINATION":87.9098,"RA_OF_ASC_NODE":236.7001,"ARG_OF_PERICENTER":93.7422,"MEAN_ANOMALY":266.3904,"EPHEMERIS_TYPE":0,"CLASSIFICATION_TYPE":"U","NORAD_CAT_ID":48972,"ELEMENT_SET_NO":999,"REV_AT_EPOCH":23433,"BSTAR":4.1402e-05,"MEAN_MOTION_DOT":2.9e-07,"MEAN_MOTION_DDOT":0.0},{"OBJECT_NAME":"ONEWEB-0255","OBJECT_ID":"2021-060G","EPOCH":"2026-05-08T05:19:20.005248","MEAN_MOTION":13.16596756,"ECCENTRICITY":0.0001816,"INCLINATION":87.9098,"RA_OF_ASC_NODE":236.7155,"ARG_OF_PERICENTER":96.2347,"MEAN_ANOMALY":263.8991,"EPHEMERIS_TYPE":0,"CLASSIFICATION_TYPE":"U","NORAD_CAT_ID":48973,"ELEMENT_SET_NO":999,"REV_AT_EPOCH":23440,"BSTAR":0.00026449,"MEAN_MOTION_DOT":1.14e-06,"MEAN_MOTION_DDOT":0.0},{"OBJECT_NAME":"ONEWEB-0256","OBJECT_ID":"2021-060H","EPOCH":"2026-05-08T05:56:59.574336","MEAN_MOTION":13.16595275,"ECCENTRICITY":0.0002026,"INCLINATION":87.909,"RA_OF_ASC_NODE":236.7162,"ARG_OF_PERICENTER":102.9364,"MEAN_ANOMALY":257.1993,"EPHEMERIS_TYPE":0,"CLASSIFICATION_TYPE":"U","NORAD_CAT_ID":48974,"ELEMENT_SET_NO":999,"REV_AT_EPOCH":23437,"BSTAR":-2.3468e-05,"MEAN_MOTION_DOT":4e-08,"MEAN_MOTION_DDOT":0.0},{"OBJECT_NAME":"ONEWEB-0257","OBJECT_ID":"2021-060J","EPOCH":"2026-05-08T06:43:43.161888","MEAN_MOTION":13.16595728,"ECCENTRICITY":0.0001959,"INCLINATION":87.9097,"RA_OF_ASC_NODE":236.6951,"ARG_OF_PERICENTER":97.1384,"MEAN_ANOMALY":262.997,"EPHEMERIS_TYPE":0,"CLASSIFICATION_TYPE":"U","NORAD_CAT_ID":48975,"ELEMENT_SET_NO":999,"REV_AT_EPOCH":23433,"BSTAR":0.00015008,"MEAN_MOTION_DOT":7e-07,"MEAN_MOTION_DDOT":0.0},{"OBJECT_NAME":"ONEWEB-0258","OBJECT_ID":"2021-060K","EPOCH":"2026-05-08T06:45:59.203008","MEAN_MOTION":13.16595449,"ECCENTRICITY":0.0001842,"INCLINATION":87.9099,"RA_OF_ASC_NODE":236.7061,"ARG_OF_PERICENTER":100.9911,"MEAN_ANOMALY":259.1427,"EPHEMERIS_TYPE":0,"CLASSIFICATION_TYPE":"U","NORAD_CAT_ID":48976,"ELEMENT_SET_NO":999,"REV_AT_EPOCH":23434,"BSTAR":0.00024481,"MEAN_MOTION_DOT":1.06e-06,"MEAN_MOTION_DDOT":0.0}]